{"spkid": "54017368", "covariance": {"epoch": "2459945.5", "labels": ["e", "q", "tp", "node", "peri", "i"], "data": [["1.585070391143419E-12", "-1.936077401563982E-12", "1.646195934963829E-10", "1.260285310939412E-10", "-2.386603557591553E-10", "2.484268037634133E-11"], ["-1.936077401563982E-12", "2.364814272504711E-12", "-2.010797254345179E-10", "-1.539441927852407E-10", "2.9150782953438E-10", "-3.034077856457558E-11"], ["1.646195934963829E-10", "-2.010797254345179E-10", "1.749989123115375E-8", "1.347684380693841E-8", "-2.476788690989831E-8", "2.508584655834329E-9"], ["1.260285310939412E-10", "-1.539441927852407E-10", "1.347684380693841E-8", "1.062971516684909E-8", "-1.917033577856946E-8", "2.127143487338303E-9"], ["-2.386603557591553E-10", "2.9150782953438E-10", "-2.476788690989831E-8", "-1.917033577856946E-8", "3.61475725530069E-8", "-3.968155902347661E-9"], ["2.484268037634133E-11", "-3.034077856457558E-11", "2.508584655834329E-9", "2.127143487338303E-9", "-3.968155902347661E-9", "7.617880710517366E-10"]], "elements": [{"title": "eccentricity", "value": ".8002547351467149", "units": null, "sigma": 1.25899578678541e-06, "name": "e", "label": "e"}, {"label": "q", "sigma": 1.53779526352005e-06, "name": "q", "value": ".2437020857289144", "title": "perihelion distance", "units": "au"}, {"sigma": 0.000132287154444994, "name": "tp", "units": "TDB", "value": "2459945.258696850664", "title": "time of perihelion passage", "label": "tp"}, {"sigma": 0.000103100510022255, "name": "om", "units": "deg", "value": "73.17747744098601", "title": "longitude of the ascending node", "label": "node"}, {"label": "peri", "name": "w", "sigma": 0.000190125149711991, "units": "deg", "value": "46.44469122354482", "title": "argument of perihelion"}, {"sigma": 2.76005085288611e-05, "name": "i", "title": "inclination", "value": "3.429619458562767", "units": "deg", "label": "i"}]}, "elements": [{"name": "e", "sigma": "1.1804E-6", "units": null, "title": "eccentricity", "value": ".8002609465961189", "label": "e"}, {"label": "a", "name": "a", "sigma": "8.4616E-7", "title": "semi-major axis", "value": "1.218749905608805", "units": "au"}, {"label": "q", "units": "au", "title": "perihelion distance", "value": ".2434319524823721", "name": "q", "sigma": "1.5845E-6"}, {"sigma": "2.9206E-5", "name": "i", "units": "deg", "value": "3.427134488604507", "title": "inclination; angle with respect to x-y ecliptic plane", "label": "i"}, {"name": "om", "sigma": "8.3446E-5", "title": "longitude of the ascending node", "value": "73.20295135312445", "units": "deg", "label": "node"}, {"sigma": ".00018404", "name": "w", "title": "argument of perihelion", "value": "46.39316364330396", "units": "deg", "label": "peri"}, {"name": "ma", "sigma": ".00012947", "title": "mean anomaly", "value": "198.3807787174293", "units": "deg", "label": "M"}, {"label": "tp", "sigma": ".00040352", "name": "tp", "units": "TDB", "value": "2461421.128101859396", "title": "time of perihelion passage"}, {"label": "period", "name": "per", "sigma": ".0005118", "value": "491.4397931079994", "title": "sidereal orbital period", "units": "d"}, {"units": "deg/d", "value": ".732541412088878", "title": "mean motion", "sigma": "7.6289E-7", "name": "n", "label": "n"}, {"name": "ad", "sigma": "1.5233E-6", "units": "au", "title": "aphelion distance", "value": "2.194067858735238", "label": "Q"}], "epoch": "2461200.5"}